#cP2020  1  6  0  0  0.00000000     192 ORBIT IGS14 HLM  IGS
## 2087  86400.00000000   900.00000000 58854 0.0000000000000
+   32   G01G02G03G04G05G06G07G08G09G10G11G12G13G14G15G16G17
+        G18G19G20G21G22G23G24G25G26G27G28G29G30G31G32  0  0
+          0  0  0  0  0  0  0  0  0  0  0  0  0  0  0  0  0
+          0  0  0  0  0  0  0  0  0  0  0  0  0  0  0  0  0
+          0  0  0  0  0  0  0  0  0  0  0  0  0  0  0  0  0
++         4  4  4  4  3  4  3  3  4  4  4  4  3  3  4  3  4
++         4  4  4  4  4  4  3  3  4  3  3  4  4  4  3  0  0
++         0  0  0  0  0  0  0  0  0  0  0  0  0  0  0  0  0
++         0  0  0  0  0  0  0  0  0  0  0  0  0  0  0  0  0
++         0  0  0  0  0  0  0  0  0  0  0  0  0  0  0  0  0
%c G  cc GPS ccc cccc cccc cccc cccc ccccc ccccc ccccc ccccc
%c cc cc ccc ccc cccc cccc cccc cccc ccccc ccccc ccccc ccccc
%f  1.2500000  1.025000000  0.00000000000  0.000000000000000
%f  0.0000000  0.000000000  0.00000000000  0.000000000000000
%i    0    0    0    0      0      0      0      0         0
%i    0    0    0    0      0      0      0      0         0
/* ULTRA ORBIT COMBINATION 20872_00 (58855.000) FROM:       
/* cou emu esu gfu siu usu whu                              
/* REFERENCED TO emu CLOCK AND TO WEIGHTED MEAN POLE:       
/* PCV:IGS14_2086 OL/AL:FES2004  NONE     Y  ORB:CMB CLK:CMB
*  2020  1  7  9  0  0.00000000
PG01  12307.757032  13638.519613 -19504.245430   -254.622721 13 11 11 184  P   P
PG02  11922.740073 -14196.427913  19618.493178   -381.255083 11  3 10 252  P   P
PG03  13407.152441  22929.677922   1544.723311    -67.481617 12 11 14 242  P   P
PG04   5052.380981  17179.265284  19616.278364 999999.999999 13 11 10      P   P
PG05   1422.107048 -20799.568763  16205.547530     -5.756684 11  8  8 215  P   P
PG06  23048.179009  -6888.440921  11350.000858   -175.498015  9 12 13 248  P   P
PG07  25104.266606   6328.157922   7252.600540   -186.769355 11 13 13 232  P   P
PG08  -3187.318787  22718.857738 -13142.829961    -19.384182 10  6 11 231  P   P
PG09  13228.127878   7840.038460  21598.801308   -126.797748 11 13  4 217  P   P
PG10 -16487.088894   -252.096983 -20798.459169   -200.642729  8 13 10 213  P   P
PG11   6884.291477  14996.465011 -21293.356089   -397.144838 13 12  6 243  P   P
PG12  -9375.411503 -24859.458938  -2366.263080    164.967571 13  9 13 252  P   P
PG13  11805.891010 -22598.326373  -7421.893365    -21.603164  9  7 12 241  P   P
PG14 -18247.579457  18288.107616  -5399.201788    -40.253444  6 12 13 214  P   P
PG15   -221.386233 -22764.363634 -13663.493495   -260.310555 12 10 11 219  P   P
PG16  -3882.746625  19767.276513  16869.899374   -111.018827 10 11 11 243  P   P
PG17  19229.008306 -10536.904591 -14515.216772    194.357266  9 12 10 243  P   P
PG18   3190.337598  15386.783973 -21925.662585    111.835330 13 10  8 260  P   P
PG19  19633.085493 -15758.931873  -8773.160800   -215.829909  3 11 11 190  P   P
PG20 -20149.933517  -9711.273717 -14567.086755    527.762823  9 13 11 216  P   P
PG21 -25731.859538  -3393.228449   5811.830314    -59.351146  6 12 12 237  P   P
PG22   9764.770760  23896.417024  -6265.144046   -781.020140 14  7 13 218  P   P
PG23   7571.590053  15885.944137  20137.902060   -144.679198 13 11  8 196  P   P
PG24 -10525.713206 -14422.164179 -19951.980296     -7.244212 11  6 10 303  P   P
PG25 -17023.179584 -18099.090143   9530.425940    -16.477090  9 10 12 222  P   P
PG26 -10223.796131  12488.672739  21038.503073    122.149729 14 12  8 231  P   P
PG27 -11928.588455  23325.583683  -3241.609865   -173.837751  4  8 10 206  P   P
PG28  15320.570356    -63.876012 -21080.712049    746.616027 10  7  8 221  P   P
PG29 -11899.398955  -8559.735768  22118.790908     -1.281160 13 13  8 240  P   P
PG30  26318.155408  -1129.935500  -4122.268610   -123.614481  7 12 13 251  P   P
PG31 -21904.956410   7902.473936  13160.713274    -14.924688  9 10 12 226  P   P
PG32 -18991.803237  11471.896517 -14435.906659    178.014895  6 12 10 196  P   P
*  2020  1  7  9 15  0.00000000
PG01  10060.387830  13686.797749 -20705.757874   -254.633673 13 11 10 189  P   P
PG02  13974.290463 -14203.189902  18147.511746   -381.261592 10  4 11 253  P   P
PG03  13211.178120  23064.800058  -1313.715533    -67.488337 13 11 14 245  P   P
PG04   3800.082413  18949.354907  18216.830887 999999.999999 13 11 11      P   P
PG05   2620.487825 -19204.419506  17936.292192     -5.757158 11  9  7 218  P   P
PG06  24189.936814  -6708.940737   8781.656742   -175.507445  8 12 13 247  P   P
PG07  24169.863013   6528.038430   9841.286474   -186.776799 12 13 13 234  P   P
PG08  -4041.659895  23818.788793 -10725.973543    -19.385251 10  6 11 231  P   P
PG09  12003.846401   9993.021839  21423.889485   -126.805650 11 13  4 218  P   P
PG10 -17585.022174  -2307.613460 -19770.682491   -200.655118  8 13 10 211  P   P
PG11   4774.434702  16024.470882 -21145.165790   -397.135020 13 12  6 242  P   P
PG12  -9034.713474 -24574.393434  -5207.709042    164.963900 12  9 13 252  P   P
PG13  12400.764171 -22997.410195  -4660.636551    -21.600895  8  7 12 243  P   P
PG14 -18000.788235  17466.146524  -8120.426240    -40.251391  7 12 12 213  P   P
PG15    632.582851 -23927.562051 -11392.871488   -260.308203 12 10 12 217  P   P
PG16  -4886.884607  17945.113660  18580.369940   -111.022419 10 12 10 242  P   P
PG17  18339.557832  -8911.644923 -16557.564176    194.363308 10 13 10 241  P   P
PG18    784.905677  15517.890015 -22045.856103    111.837579 13 10  9 260  P   P
PG19  19116.573870 -14762.054615 -11353.394325   -215.825251  5 11 11 188  P   P
PG20 -20881.955903 -11075.376461 -12405.450495    527.762859  9 13 12 220  P   P
PG21 -25017.884939  -3709.460177   8503.553586    -59.346096  7 12 12 238  P   P
PG22   8997.099087  23340.184195  -8867.926303   -781.021478 14  7 12 218  P   P
PG23   6395.148607  17731.022751  18914.466066   -144.676994 13 11 10 195  P   P
PG24  -8237.690689 -14633.067478 -20830.141727     -7.244456 11  6  9 303  P   P
PG25 -17323.587604 -19032.700758   6886.180026    -16.476488  7 10 12 225  P   P
PG26 -11552.904440  10436.930276  21482.506359    122.156993 14 12  9 231  P   P
PG27 -12223.860016  23379.013394   -341.778342   -173.848016  2  8 10 205  P   P
PG28  16291.462621   2226.923895 -20230.055241    746.614184 10  7  9 220  P   P
PG29 -10481.568007 -10643.448542  21929.345184     -1.289919 13 13  8 241  P   P
PG30  26621.346654   -819.433196  -1344.126804   -123.622372  7 12 13 250  P   P
PG31 -23259.592208   7673.811122  10803.644894    -14.926940  9 10 12 231  P   P
PG32 -18281.424550   9825.317190 -16433.639691    178.024636  6 13 10 197  P   P
*  2020  1  7  9 30  0.00000000
PG01   7702.246612  13866.640431 -21559.729842   -254.644627 14 11  8 195  P   P
PG02  15848.977184 -14294.864382  16377.608382   -381.268104 10  6 12 254  P   P
PG03  12846.455036  22940.879643  -4149.683548    -67.495052 13 11 14 246  P   P
PG04   2725.272613  20627.378383  16503.858709 999999.999999 13 11 12      P   P
PG05   3999.450434 -17524.663694  19353.039107     -5.757630 11  9  6 222  P   P
PG06  25041.195788  -6574.132788   6062.759921   -175.516875  6 12 13 247  P   P
PG07  22968.760311   6788.082260  12266.937658   -186.784246 12 12 13 236  P   P
PG08  -4712.193704  24705.043002  -8121.856380    -19.386319 10  7 11 232  P   P
PG09  10907.779258  12168.419844  20878.374068   -126.813551 11 13  7 219  P   P
PG10 -18714.258545  -4186.941546 -18402.689161   -200.667505  7 13 10 209  P   P
PG11   2746.603660  17129.291450 -20648.930824   -397.125205 13 11  8 240  P   P
PG12  -8525.267446 -24033.834164  -7960.891477    164.960235 12  9 12 252  P   P
PG13  12797.658689 -23163.412082  -1818.995432    -21.598623  8  6 13 245  P   P
PG14 -17640.215365  16371.674960 -10698.720633    -40.249338  8 13 12 211  P   P
PG15   1339.129776 -24881.549325  -8925.069897   -260.305852 12  9 12 214  P   P
PG16  -6071.187718  16025.169616  19961.172246   -111.026012 10 12  9 242  P   P
PG17  17431.629527  -7047.871229 -18305.311627    194.369348 10 13  9 239  P   P
PG18  -1604.501795  15775.560527 -21803.745163    111.839833 13  9 10 260  P   P
PG19  18505.822971 -13503.838917 -13741.044517   -215.820594  7 12 10 184  P   P
PG20 -21513.595763 -12209.527385 -10033.517948    527.762897  9 13 12 223  P   P
PG21 -24032.113905  -4090.369158  11050.993228    -59.341042  8 12 12 238  P   P
PG22   8027.251181  22595.426158 -11317.710106   -781.022820 15  8 12 217  P   P
PG23   5375.092294  19496.085801  17370.745120   -144.674790 13 11 11 194  P   P
PG24  -5882.004089 -14965.499878 -21357.661047     -7.244699 11  7  9 303  P   P
PG25 -17507.362706 -19691.395582   4124.469471    -16.475879  7 10 12 227  P   P
PG26 -12998.658677   8432.051105  21555.654539    122.164263 14 13 11 231  P   P
PG27 -12368.300591  23150.928190   2564.042307   -173.858285  1  8 10 206  P   P
PG28  17326.094868   4354.943853 -19011.333495    746.612340 10  6  9 221  P   P
PG29  -9204.187732 -12766.182135  21361.451099     -1.298676 13 13  9 243  P   P
PG30  26625.999015   -518.733960   1456.873019   -123.630260  8 12 13 249  P   P
PG31 -24348.644607   7509.598693   8264.945722    -14.929190  9 11 12 235  P   P
PG32 -17562.657997   7956.108536 -18145.769294    178.034375  6 13  9 197  P   P
EOF
